#aV2023  5  3  0  0  0.00000000     288 DD+AD WGS84 FIT  NGA
## 2260 259200.00000000   300.00000000 60067 0.0000000000000
+   32     1  2  3  4  5  6  7  8  9 10 11 12 13 14 15 16 17
+         18 19 20 21 22 23 24 25 26 27 28 29 30 31 32  0  0
+          0  0  0  0  0  0  0  0  0  0  0  0  0  0  0  0  0
+          0  0  0  0  0  0  0  0  0  0  0  0  0  0  0  0  0
+          0  0  0  0  0  0  0  0  0  0  0  0  0  0  0  0  0
++         2  2  2  2  2  2  2  2  2  2  2  2  2  2  2  2  2
++         2  2  2  2  2  2  2  2  2  2  2  2  2  2  2  0  0
++         0  0  0  0  0  0  0  0  0  0  0  0  0  0  0  0  0
++         0  0  0  0  0  0  0  0  0  0  0  0  0  0  0  0  0
++         0  0  0  0  0  0  0  0  0  0  0  0  0  0  0  0  0
%c cc cc ccc ccc cccc cccc cccc cccc ccccc ccccc ccccc ccccc
%c cc cc ccc ccc cccc cccc cccc cccc ccccc ccccc ccccc ccccc
%f  0.0000000  0.000000000  0.00000000000  0.000000000000000
%f  0.0000000  0.000000000  0.00000000000  0.000000000000000
%i    0    0    0    0      0      0      0      0         0
%i    0    0    0    0      0      0      0      0         0
/*      NGA, ST. LOUIS,MO.                                  
/*   EPHEMERIS COMPUTED FROM 2 DAYS OF DATA                 
/*   EPOCHA v8 SMOOTHER                                     
/*   G2139 IERS2010 SATIGS SATAPC                           
*  2023  5  3  6 10  0.00000000
P  1 -17287.194208  -6707.134981  18823.847098    188.278602                    
V  1 -10307.619168 -22143.275865 -16715.707836     -0.030155                    
P  2  -1041.168245 -21360.051354 -15459.846117   -600.044687                    
V  2  12530.200567  16214.646622 -22245.787738      0.038313                    
P  3 -18071.593085   5420.509010  18515.372742   -313.916900                    
V  3  11485.291681 -20858.482826  17313.359644      0.103054                    
P  4 -26496.121195    -30.300913  -2572.965278     31.819908                    
V  4  -3080.541535  -2881.146797  31491.550517      0.095504                    
P  5  10868.535661  11213.071725 -21643.021916   -125.730027                    
V  5 -13689.422205  23364.301557   5389.063552     -0.014712                    
P  6   3197.066898  23393.814099  12124.016824    588.057664                    
V  6  -8527.825226 -12799.140874  27176.487384      0.002918                    
P  7 -12213.930056   9279.834073 -21198.073127    187.385224                    
V  7 -13615.435625 -24551.616039  -3322.093191     -0.089704                    
P  8 -24025.184510  -6923.675675  -9596.209051   -120.647728                    
V  8  11981.259962  -2179.086556 -28248.720078     -0.018185                    
P  9 -22234.569019   8255.940525 -12067.677389   -167.147771                    
V  9 -15178.410702  -2623.609547  26282.238138      0.082122                    
P 10  10243.284915 -23702.949673   5650.719585    -35.343076                    
V 10   5741.734412  -4669.170696 -31261.485090     -0.015661                    
P 11  12504.821701  23366.634424  -2034.698023   -183.274790                    
V 11  -1283.048066   3460.554263  31696.682264     -0.133818                    
P 12  17739.531300  -1617.643182  19392.093341   -371.350779                    
V 12 -13773.434769  21197.369782  14248.122276     -0.046629                    
P 13  18196.959700  13232.508777 -14449.957703    514.521178                    
V 13 -17980.573731  -1367.390522 -23989.841560      0.054249                    
P 14 -13010.172042  22909.589140   2678.279029     44.245877                    
V 14  -4630.038191   1005.535246 -31345.934485      0.124026                    
P 15  24708.695529   4484.678083  -9503.519982     36.092443                    
V 15 -11017.897384   4220.222676 -27743.564867      0.034369                    
P 16  -7324.813693 -14601.438403 -21156.510787   -504.189502                    
V 16  16519.219346 -20419.739641   8942.948301      0.030811                    
P 17  -9472.256025  13566.480850  21229.015690    713.305882                    
V 17 -25729.729855  -3089.853130  -9601.210214      0.016135                    
P 18   9588.320016 -12847.185208 -21149.469975   -250.271951                    
V 18  12804.903185  23604.359338  -8679.907190     -0.161441                    
P 19    928.793044  15027.534843  21673.679162    311.785527                    
V 19 -27748.340301  -3779.245278   3484.441383      0.051057                    
P 20   5358.523622  19527.386820 -17254.034179    435.668432                    
V 20 -10034.107248  19594.066264  18825.856818     -0.020966                    
P 21 -19637.912030 -13562.672236  13066.922150    154.003480                    
V 21  -7110.413304 -13717.645335 -25205.431636     -0.001539                    
P 22  -4585.854899 -15608.760780  21472.774951    474.817710                    
V 22  26069.588654   2551.354311   7423.904569      0.065791                    
P 23  16573.364122 -19601.144576  -6505.304100     21.223306                    
V 23  -2081.748014   8384.609703 -30687.776612      0.028893                    
P 24  19567.495405   9640.182764  15076.549679   -174.668641                    
V 24   8713.536455  17813.930571 -21761.442332     -0.141677                    
P 25  18713.270321 -13280.948407  12828.009602    440.083708                    
V 25  -6446.422360  15876.219039  25489.144847      0.027668                    
P 26   1104.641981 -22880.988416 -13264.265288    241.229832                    
V 26  10647.415432 -13421.363664  24590.782982     -0.003995                    
P 27 -15344.943080 -12830.457159 -17927.856888     45.647143                    
V 27  22120.867647   -526.537496 -18413.882653     -0.082133                    
P 28  -2368.522315 -22788.707607  13415.823093     73.547544                    
V 28  10449.661124  13678.498265  25028.213892      0.045205                    
P 29  24569.411791  -3761.036791  -9541.123497   -597.966475                    
V 29  11691.885063   3322.205643  28883.303258     -0.015032                    
P 30  -3982.200110  19686.088642 -17136.165599   -519.274882                    
V 30 -12298.833882 -18574.155863 -18626.791727      0.020332                    
P 31  -8613.231037 -24408.404272   4648.140765   -215.301684                    
V 31   5763.461715   4034.223473  31159.318722     -0.008215                    
P 32   5665.033673 -14878.786364  21412.285181   -467.080821                    
V 32  26781.079260   1323.151904  -6412.125886     -0.095523                    
EOF
